     2.100          NAVIGATION                              RINEX VERSION / TYPE
fic2rin                                 05/23/2013 00:15:10 PGM / RUN BY / DATE
                                                            END OF HEADER
13 13  5 22 17 59 44.0  .116779934615D-03 -.363797880709D-11  .000000000000D+00
     .350000000000D+02  .656250000000D+02  .442554148442D-08 -.882327358556D+00
     .319816172123D-05  .518742657732D-02  .271573662758D-05  .515375064850D+04
     .323984000000D+06 -.745058059692D-08  .853258402437D+00 -.335276126862D-07
     .981693251510D+00  .343093750000D+03  .211680422295D+01 -.834534761723D-08
     .305369862738D-09  .100000000000D+01  .174100000000D+04  .000000000000D+00
     .240000000000D+01  .000000000000D+00 -.111758708954D-07  .350000000000D+02
     .316956000000D+06  .400000000000D+01
 1 13  5 22 20  0  0.0  .289510935545D-04  .420641299570D-11  .000000000000D+00
     .450000000000D+02 -.469062500000D+02  .464876506830D-08 -.159075280131D+01
    -.234134495258D-05  .188510084990D-02  .754185020924D-05  .515369125175D+04
     .331200000000D+06 -.108033418655D-06 -.133983417637D+01 -.117346644402D-06
     .959808627562D+00  .235812500000D+03  .257746827253D+00 -.803569186168D-08
    -.582881422208D-09  .100000000000D+01  .174100000000D+04  .000000000000D+00
     .240000000000D+01  .000000000000D+00  .838190317154D-08  .450000000000D+02
     .324006000000D+06  .400000000000D+01
 2 13  5 22 20  0  0.0  .433414243162D-03  .181898940355D-11  .000000000000D+00
     .550000000000D+02 -.364375000000D+02  .531307845390D-08 -.853729213363D+00
    -.192597508430D-05  .123637784272D-01  .718981027603D-05  .515365397835D+04
     .331200000000D+06  .316649675369D-06 -.136138035715D+01  .141561031342D-06
     .938314272121D+00  .229687500000D+03 -.259802690607D+01 -.847070998193D-08
    -.582167106740D-09  .100000000000D+01  .174100000000D+04  .000000000000D+00
     .240000000000D+01  .000000000000D+00 -.176951289177D-07  .550000000000D+02
     .324006000000D+06  .400000000000D+01
 3 13  5 22 20  0  0.0  .210318714380D-03  .500222085975D-11  .000000000000D+00
     .980000000000D+02  .356562500000D+02  .558130391228D-08 -.674353631570D+00
     .204145908356D-05  .162298145005D-01  .711530447006D-05  .515368728828D+04
     .331200000000D+06 -.193715095520D-06 -.253129040462D+01  .162050127983D-06
     .934491649625D+00  .228093750000D+03  .128821329208D+01 -.880786688301D-08
     .425017703693D-09  .100000000000D+01  .174100000000D+04  .000000000000D+00
     .485000000000D+01  .000000000000D+00 -.465661287308D-08  .980000000000D+02
     .324006000000D+06  .400000000000D+01
 4 13  5 22 20  0  0.0  .225138850510D-03  .104591890704D-10  .000000000000D+00
     .280000000000D+02 -.442812500000D+02  .517592988397D-08  .235101833054D+01
    -.252947211266D-05  .103108821204D-01  .724941492081D-05  .515378967667D+04
     .331200000000D+06  .558793544769D-08 -.134491596172D+01 -.149011611938D-06
     .937355892544D+00  .228125000000D+03  .977939820650D+00 -.826784438891D-08
    -.566809324169D-09  .100000000000D+01  .174100000000D+04  .000000000000D+00
     .240000000000D+01  .000000000000D+00 -.605359673500D-08  .280000000000D+02
     .324006000000D+06  .400000000000D+01
 5 13  5 22 20  0  0.0 -.395275186747D-03 -.909494701773D-12  .000000000000D+00
     .360000000000D+02  .802187500000D+02  .439732602342D-08  .135737407846D+01
     .424124300480D-05  .304820819292D-02  .115726143122D-04  .515362693024D+04
     .331200000000D+06 -.763684511185D-07 -.296187080055D+00  .186264514923D-07
     .949111864193D+00  .150968750000D+03  .266942404068D+00 -.790925802377D-08
    -.104647216119D-09  .100000000000D+01  .174100000000D+04  .000000000000D+00
     .240000000000D+01  .000000000000D+00 -.102445483208D-07  .360000000000D+02
     .324006000000D+06  .400000000000D+01
 6 13  5 22 20  0  0.0  .220859888941D-03 -.164845914696D-10  .000000000000D+00
     .920000000000D+02  .310000000000D+02  .538843873582D-08  .116645733552D+01
     .169686973095D-05  .807717803400D-02  .605545938015D-05  .515367202187D+04
     .331200000000D+06  .106170773506D-06 -.245187803694D+01  .428408384323D-07
     .941062189646D+00  .244875000000D+03 -.319264994577D+00 -.846320966951D-08
     .291083553370D-09  .100000000000D+01  .174100000000D+04  .000000000000D+00
     .240000000000D+01  .000000000000D+00 -.512227416039D-08  .920000000000D+02
     .324006000000D+06  .400000000000D+01
 7 13  5 22 20  0  0.0  .216705724597D-03  .420641299570D-11  .000000000000D+00
     .530000000000D+02 -.105000000000D+03  .440125475850D-08 -.222518866500D+01
    -.559538602829D-05  .636320502963D-02  .495277345181D-05  .515369180870D+04
     .331200000000D+06 -.204890966415D-07  .182086340906D+01 -.173225998878D-06
     .975179384936D+00  .295062500000D+03 -.293835845349D+01 -.816426864599D-08
    -.216794744657D-09  .100000000000D+01  .174100000000D+04  .000000000000D+00
     .240000000000D+01  .000000000000D+00 -.107102096081D-07  .530000000000D+02
     .324006000000D+06  .400000000000D+01
 8 13  5 22 20  0  0.0  .628735870123D-05  .227373675443D-12  .000000000000D+00
     .168000000000D+03 -.109500000000D+03  .379551524130D-08 -.278275565182D+01
    -.567361712456D-05  .129317138344D-01  .613182783127D-05  .515372671318D+04
     .331200000000D+06 -.214204192162D-06  .191206682185D+01 -.167638063431D-06
     .997927725958D+00  .285062500000D+03 -.287600958422D+01 -.770389232661D-08
    -.277511559470D-09  .100000000000D+01  .174100000000D+04  .000000000000D+00
     .340000000000D+01  .000000000000D+00 -.419095158577D-08  .168000000000D+03
     .324006000000D+06  .400000000000D+01
 9 13  5 22 20  0  0.0  .242703594267D-03  .261479726760D-11  .000000000000D+00
     .420000000000D+02 -.946562500000D+02  .431303679815D-08 -.157570756369D+01
    -.444240868092D-05  .174293131568D-01  .510737299919D-05  .515278400230D+04
     .331200000000D+06 -.819563865662D-07  .179760629292D+01  .437721610069D-06
     .983801898704D+00  .295468750000D+03  .166173867601D+01 -.810248035797D-08
    -.265368196508D-09  .100000000000D+01  .174100000000D+04  .000000000000D+00
     .240000000000D+01  .000000000000D+00 -.558793544769D-08  .420000000000D+02
     .324006000000D+06  .400000000000D+01
10 13  5 22 20  0  0.0 -.807661563158D-04 -.136424205266D-11  .000000000000D+00
     .210000000000D+02  .726250000000D+02  .453590322429D-08  .158444629606D+01
     .380352139473D-05  .124007294653D-01  .117626041174D-04  .515364618683D+04
     .331200000000D+06 -.249594449997D-06 -.276738637492D+00  .242143869400D-07
     .943949273105D+00  .145437500000D+03  .800728084876D+00 -.812855287257D-08
    -.122505102829D-09  .100000000000D+01  .174100000000D+04  .000000000000D+00
     .240000000000D+01  .000000000000D+00 -.279396772385D-08  .210000000000D+02
     .324006000000D+06  .400000000000D+01
11 13  5 22 20  0  0.0 -.384402461350D-03 -.363797880709D-11  .000000000000D+00
     .680000000000D+02 -.394687500000D+02  .646776940856D-08 -.202346509605D+01
    -.196695327759D-05  .139878176851D-01  .407733023167D-05  .515367787933D+04
     .331200000000D+06  .253319740295D-06 -.163655995699D+01 -.102445483208D-06
     .888456939958D+00  .259562500000D+03  .116540272372D+01 -.886501212048D-08
    -.319299014371D-09  .100000000000D+01  .174100000000D+04  .000000000000D+00
     .340000000000D+01  .000000000000D+00 -.116415321827D-07  .680000000000D+02
     .324006000000D+06  .400000000000D+01
12 13  5 22 20  0  0.0  .135208945721D-03  .204636307899D-11  .000000000000D+00
     .105000000000D+03 -.397187500000D+02  .373444126875D-08 -.253547701723D+01
    -.216811895370D-05  .452295946889D-02  .130273401737D-04  .515357715607D+04
     .331200000000D+06 -.875443220139D-07  .287970150230D+01 -.968575477600D-07
     .984377286328D+00  .137406250000D+03  .255582179555D+00 -.755460039372D-08
     .303226916332D-09  .100000000000D+01  .174100000000D+04  .000000000000D+00
     .240000000000D+01  .000000000000D+00 -.121071934700D-07  .105000000000D+03
     .324006000000D+06  .400000000000D+01
13 13  5 22 20  0  0.0  .116753857583D-03 -.363797880709D-11  .000000000000D+00
     .360000000000D+02  .711875000000D+02  .431660837549D-08  .170209152157D+00
     .357627868652D-05  .518727151211D-02  .238977372646D-05  .515375061226D+04
     .331200000000D+06 -.130385160446D-07  .853198058530D+00 -.372529029846D-08
     .981695573161D+00  .341000000000D+03  .211673366202D+01 -.834284751309D-08
     .330728061866D-09  .100000000000D+01  .174100000000D+04  .000000000000D+00
     .240000000000D+01  .000000000000D+00 -.111758708954D-07  .360000000000D+02
     .324006000000D+06  .400000000000D+01
14 13  5 22 20  0  0.0  .220801215619D-03 -.113686837722D-12  .000000000000D+00
     .320000000000D+02  .842500000000D+02  .457376194412D-08  .351356282394D+00
     .419467687607D-05  .689179194160D-02  .253133475780D-05  .515374617577D+04
     .331200000000D+06 -.124797224998D-06  .823976006571D+00  .298023223877D-07
     .974398385638D+00  .338156250000D+03 -.203405261016D+01 -.852356932659D-08
     .315013121561D-09  .100000000000D+01  .174100000000D+04  .000000000000D+00
     .240000000000D+01  .000000000000D+00 -.884756445885D-08  .320000000000D+02
     .324006000000D+06  .400000000000D+01
15 13  5 22 20  0  0.0 -.120186246932D-03 -.159161572810D-11  .000000000000D+00
     .570000000000D+02  .911250000000D+02  .523128933277D-08 -.174487643334D+00
     .487826764584D-05  .540296686813D-02  .242516398430D-05  .515376084709D+04
     .331200000000D+06  .912696123123D-07  .724230312288D+00 -.651925802231D-07
     .941110405963D+00  .320468750000D+03  .168385171267D+00 -.880429530567D-08
     .368943939425D-09  .100000000000D+01  .174100000000D+04  .000000000000D+00
     .240000000000D+01  .000000000000D+00 -.102445483208D-07  .570000000000D+02
     .324006000000D+06  .400000000000D+01
